ISS (ZARYA)             
1 25544U 98067A   26161.41633915  .00005345  00000+0  10452-3 0  9999
2 25544  51.6361 333.6061 0005881 172.3680 187.7399 15.49162374570700
OSCAR 7 (AO-7)          
1 07530U 74089B   26161.28179581 -.00000033  00000+0  84573-4 0  9997
2 07530 101.9901 174.4563 0012501 142.9960 284.8697 12.53697951359658
PHASE 3B (AO-10)        
1 14129U 83058B   26158.17238870 -.00000194  00000+0  00000+0 0  9992
2 14129  25.9048 221.2242 6014266 112.9115 319.2048  2.05872980295281
UOSAT 2 (UO-11)         
1 14781U 84021B   26161.17371193  .00001160  00000+0  12370-3 0  9997
2 14781  97.8055 126.8269 0006980 196.0557 164.0441 14.90765931256083
LUSAT (LO-19)           
1 20442U 90005G   26161.55393097  .00000100  00000+0  52314-4 0  9992
2 20442  98.8852 183.1766 0010774 221.6340 138.4024 14.34121162901448
EYESAT A (AO-27)        
1 22825U 93061C   26161.42702728  .00000074  00000+0  45162-4 0  9998
2 22825  98.6881 228.8428 0009435 117.2772 242.9373 14.30940455706034
ITAMSAT (IO-26)         
1 22826U 93061D   26161.40845591  .00000073  00000+0  44368-4 0  9999
2 22826  98.6829 228.7410 0010048 102.5360 257.6948 14.31367133706341
RADIO ROSTO (RS15)      
1 23439U 94085A   26161.46429965 -.00000040  00000+0  72413-4 0  9993
2 23439  64.8187 314.0890 0155739   5.1201 355.1274 11.27583632295147
JAS-2 (FO-29)           
1 24278U 96046B   26161.58304484  .00000006  00000+0  38837-4 0  9998
2 24278  98.5246  11.3599 0350807 113.5240 250.3166 13.53273851472279
TECHSAT 1B (GO-32)      
1 25397U 98043D   26161.53178858  .00000053  00000+0  43187-4 0  9995
2 25397  99.0066 154.1227 0000675 179.7383 180.3795 14.24427136450383
PCSAT (NO-44)           
1 26931U 01043C   26161.59384368  .00000066  00000+0  55711-4 0  9995
2 26931  67.0510 261.3249 0006103 264.3333  95.7073 14.31953756289502
SAUDISAT 1C (SO-50)     
1 27607U 02058C   26161.41203398  .00000888  00000+0  12206-3 0  9990
2 27607  64.5505 149.9474 0075399 263.7335  95.5179 14.83031935263452
CUTE-1 (CO-55)          
1 27844U 03031E   26161.29335645  .00000255  00000+0  12935-3 0  9999
2 27844  98.6735 169.9388 0009062 198.4654 161.6197 14.24331486190695
CUBESAT XI-IV (CO-57)   
1 27848U 03031J   26161.55949117  .00000214  00000+0  11309-3 0  9996
2 27848  98.6767 169.9197 0008636 217.5980 142.4596 14.23617305190431
MOZHAETS 4 (RS22)       
1 27939U 03042A   26161.63012659  .00000987  00000+0  16034-3 0  9997
2 27939  98.3475 345.8042 0010079 293.1331 155.0167 14.73456279214586
CUBESAT XI-V            
1 28895U 05043F   26161.33614102  .00001246  00000+0  20389-3 0  9997
2 28895  98.2977 316.8144 0013219 223.4430 136.5736 14.72613094100747
CUTE-1.7+APD II (CO-65) 
1 32785U 08021C   26161.61958555  .00004983  00000+0  31564-3 0  9991
2 32785  97.8272 142.9015 0010326  58.2820 301.9414 15.09391098984201
SEEDS II (CO-66)        
1 32791U 08021J   26161.47612768  .00016320  00000+0  52179-3 0  9998
2 32791  97.7516 159.0539 0002041  26.6798 333.4547 15.32520473986268
YUBILEINY (RS30)        
1 32953U 08025A   26161.57974087  .00000047  00000+0  26933-3 0  9996
2 32953  82.5049 359.5514 0019141 328.8344  31.1600 12.43179004818876
KKS-1 (KISEKI)          
1 33499U 09002H   26161.50994661  .00001178  00000+0  15146-3 0  9991
2 33499  98.1192  83.8464 0006916 321.1426  38.9289 14.83106801935204
SWISSCUBE               
1 35932U 09051B   26160.71112973  .00000922  00000+0  19187-3 0  9994
2 35932  98.4042  68.4691 0005562 230.1201 129.9511 14.62467613888060
BEESAT-1                
1 35933U 09051C   26161.53812297  .00000716  00000+0  15360-3 0  9992
2 35933  98.3971  68.9599 0003944 243.2961 116.7836 14.61709764888219
ITUPSAT1                
1 35935U 09051E   26160.97508610  .00000673  00000+0  14898-3 0  9999
2 35935  98.4056  67.5878 0006124 261.1078  98.9428 14.60430038887684
XIWANG-1 (HOPE-1)       
1 36122U 09072B   26161.63195990 -.00000289  00000+0 -63980-3 0  9999
2 36122 100.4020 115.5685 0006805 248.1786 111.8603 13.16437396792145
O/OREOS (USA 219)       
1 37224U 10062C   26161.56610107  .00002087  00000+0  20273-3 0  9992
2 37224  71.9706  95.3363 0012424  77.5503 282.7057 14.93715981115656
JUGNU                   
1 37839U 11058B   26161.25711561  .00000399  00000+0  69141-4 0  9994
2 37839  19.9621 350.5295 0018562 359.9630 156.5973 14.13774890758040
SRMSAT                  
1 37841U 11058D   26161.52450462  .00000356  00000+0  49378-4 0  9990
2 37841  19.9713  99.7947 0011922 130.6142  29.5560 14.11574150756871
STRAND-1                
1 39090U 13009E   26161.23306514  .00000258  00000+0  10110-3 0  9994
2 39090  98.3921 341.6387 0007466 249.0407 110.9981 14.37159178696068
ZACUBE-1 (TSHEPISOSAT)  
1 39417U 13066B   26161.14175542  .00003283  00000+0  25692-3 0  9997
2 39417  97.8088 123.4403 0040113 272.4357  87.2274 15.01145439679670
GOMX-1                  
1 39430U 13066Q   26161.58084668  .00001546  00000+0  23679-3 0  9991
2 39430  97.6495   2.4607 0130160  98.5133 263.0849 14.69434465668941
